{
  "type": "FeatureCollection",
  "features": [
    {
      "type": "Feature",
      "properties": {
        "norad_id": 54259,
        "name": "EUTELSAT 10B",
        "group": "eutelsat",
        "lat": 0.006859731214599047,
        "lon": -110.16834979554203,
        "alt_km": 35789.1604285952,
        "timestamp": "2025-12-24T09:46:30.667116+00:00",
        "meta_object_name": "EUTELSAT 10B",
        "meta_object_id": "2022-157A",
        "meta_epoch": "2025-12-24T00:28:38.654112",
        "meta_mean_motion": 1.00265671,
        "meta_eccentricity": 7.06e-05,
        "meta_inclination": 0.058,
        "meta_ra_of_asc_node": 95.805,
        "meta_arg_of_pericenter": 36.3332,
        "meta_mean_anomaly": 337.8525,
        "meta_ephemeris_type": 0,
        "meta_classification_type": "U",
        "meta_norad_cat_id": 54259,
        "meta_element_set_no": 999,
        "meta_rev_at_epoch": 1127,
        "meta_bstar": 0,
        "meta_mean_motion_dot": 8.9e-07,
        "meta_mean_motion_ddot": 0,
        "tle_line1": "1 54259U 22157A   25358.01989183  .00000089  00000+0  00000+0 0  9999",
        "tle_line2": "2 54259   0.0580  95.8050 0000706  36.3332 337.8525  1.00265671 11272"
      },
      "geometry": {
        "type": "Point",
        "coordinates": [
          -110.16834979554203,
          0.006859731214599047
        ]
      }
    },
    {
      "type": "Feature",
      "properties": {
        "norad_id": 59346,
        "name": "EUTELSAT 36D",
        "group": "eutelsat",
        "lat": -0.03642459392960258,
        "lon": -84.32568511726669,
        "alt_km": 35785.68601627591,
        "timestamp": "2025-12-24T09:46:30.667128+00:00",
        "meta_object_name": "EUTELSAT 36D",
        "meta_object_id": "2024-059A",
        "meta_epoch": "2025-12-23T23:34:29.430912",
        "meta_mean_motion": 1.00272896,
        "meta_eccentricity": 3.5e-05,
        "meta_inclination": 0.0182,
        "meta_ra_of_asc_node": 36.5461,
        "meta_arg_of_pericenter": 327.7923,
        "meta_mean_anomaly": 117.9204,
        "meta_ephemeris_type": 0,
        "meta_classification_type": "U",
        "meta_norad_cat_id": 59346,
        "meta_element_set_no": 999,
        "meta_rev_at_epoch": 639,
        "meta_bstar": 0,
        "meta_mean_motion_dot": 1.77e-06,
        "meta_mean_motion_ddot": 0,
        "tle_line1": "1 59346U 24059A   25357.98228508  .00000177  00000+0  00000+0 0  9994",
        "tle_line2": "2 59346   0.0182  36.5461 0000350 327.7923 117.9204  1.00272896  6393"
      },
      "geometry": {
        "type": "Point",
        "coordinates": [
          -84.32568511726669,
          -0.03642459392960258
        ]
      }
    }
  ]
}